H1 CPF 01  gfz 2021 04 01 00  5911 terrasarx 
H2 0702601  6201 31698    2021 04 01 00 59 42 2021 04 06 00 00 42   120 1 1  0 0 0
H9
10 0 59305  86382.000000  0    -889443.043    992213.194   6747862.766
10 0 59306    102.000000  0    -854402.359   1892162.041   6557788.955
10 0 59306    222.000000  0    -789000.661   2758216.373   6252479.275
10 0 59306    342.000000  0    -695105.483   3574736.485   5837267.969
10 0 59306    462.000000  0    -575347.464   4326974.348   5319417.275
10 0 59306    582.000000  0    -433057.535   5001343.886   4707996.559
10 0 59306    702.000000  0    -272187.378   5585674.632   4013729.423
10 0 59306    822.000000  0     -97213.693   6069438.490   3248808.190
10 0 59306    942.000000  0      86969.446   6443950.166   2426685.315
10 0 59306   1062.000000  0     275170.599   6702537.158   1561832.541
10 0 59306   1182.000000  0     462030.218   6840664.542    669480.082
10 0 59306   1302.000000  0     642154.753   6856019.730   -234658.092
10 0 59306   1422.000000  0     810252.656   6748552.666  -1134669.850
10 0 59306   1542.000000  0     961267.368   6520469.525  -2014733.609
10 0 59306   1662.000000  0    1090504.575   6176182.192  -2859403.493
10 0 59306   1782.000000  0    1193751.424   5722214.352  -3653885.555
10 0 59306   1902.000000  0    1267384.735   5167066.843  -4384299.136
10 0 59306   2022.000000  0    1308465.429   4521046.025  -5037917.948
10 0 59306   2142.000000  0    1314816.989   3796060.474  -5603385.816
10 0 59306   2262.000000  0    1285086.226   3005392.549  -6070905.496
10 0 59306   2382.000000  0    1218785.600   2163447.899  -6432398.054
10 0 59306   2502.000000  0    1116316.326   1285490.517  -6681630.001
10 0 59306   2622.000000  0     978972.595    387367.984  -6814311.147
10 0 59306   2742.000000  0     808926.595   -514770.832  -6828160.688
10 0 59306   2862.000000  0     609194.350  -1404760.471  -6722941.083
10 0 59306   2982.000000  0     383583.424  -2266700.419  -6500460.227
10 0 59306   3102.000000  0     136623.373  -3085231.360  -6164545.415
10 0 59306   3222.000000  0    -126521.764  -3845806.112  -5720985.659
10 0 59306   3342.000000  0    -400155.871  -4534946.856  -5177440.891
10 0 59306   3462.000000  0    -678167.243  -5140486.567  -4543321.450
10 0 59306   3582.000000  0    -954158.081  -5651790.700  -3829636.412
10 0 59306   3702.000000  0   -1221584.114  -6059953.766  -3048811.629
10 0 59306   3822.000000  0   -1473901.247  -6357965.919  -2214480.128
10 0 59306   3942.000000  0   -1704716.401  -6540846.328  -1341247.449
10 0 59306   4062.000000  0   -1907938.524  -6605738.528   -444434.601
10 0 59306   4182.000000  0   -2077926.089  -6551963.981    460195.690
10 0 59306   4302.000000  0   -2209627.584  -6381031.922   1356723.401
10 0 59306   4422.000000  0   -2298710.916  -6096604.973   2229360.268
10 0 59306   4542.000000  0   -2341678.119  -5704420.974   3062737.048
10 0 59306   4662.000000  0   -2335962.012  -5212172.946   3842181.969
10 0 59306   4782.000000  0   -2280002.734  -4629351.109   4553983.971
10 0 59306   4902.000000  0   -2173302.884  -3967052.053   5185635.970
10 0 59306   5022.000000  0   -2016460.367  -3237758.634   5726055.033
10 0 59306   5142.000000  0   -1811176.837  -2455095.417   6165773.306
10 0 59306   5262.000000  0   -1560242.188  -1633568.421   6497098.021
10 0 59306   5382.000000  0   -1267496.763   -788292.552   6714240.660
10 0 59306   5502.000000  0    -937772.373     65289.554   6813411.409
10 0 59306   5622.000000  0    -576812.884    911688.837   6792880.423
10 0 59306   5742.000000  0    -191174.113   1735650.241   6653006.959
10 0 59306   5862.000000  0     211895.210   2522427.421   6396233.480
10 0 59306   5982.000000  0     624589.073   3258046.435   6027045.242
10 0 59306   6102.000000  0    1038693.764   3929555.311   5551897.076
10 0 59306   6222.000000  0    1445749.632   4525255.930   4979106.320
10 0 59306   6342.000000  0    1837222.423   5034914.045   4318713.232
10 0 59306   6462.000000  0    2204680.872   5449941.996   3582309.455
10 0 59306   6582.000000  0    2539977.557   5763551.487   2782839.210
10 0 59306   6702.000000  0    2835427.401   5970875.711   1934370.858
10 0 59306   6822.000000  0    3083980.914   6069050.329   1051843.972
10 0 59306   6942.000000  0    3279385.549   6057254.063    150799.812
10 0 59306   7062.000000  0    3416332.726   5936708.926   -752899.972
10 0 59306   7182.000000  0    3490587.011   5710638.624  -1643361.069
10 0 59306   7302.000000  0    3499093.391   5384187.477  -2504943.601
10 0 59306   7422.000000  0    3440060.572   4964301.228  -3322543.645
10 0 59306   7542.000000  0    3313017.057   4459572.609  -4081861.918
10 0 59306   7662.000000  0    3118839.913   3880057.534  -4769652.925
10 0 59306   7782.000000  0    2859756.200   3237067.606  -5373952.360
10 0 59306   7902.000000  0    2539317.721   2542942.355  -5884277.972
10 0 59306   8022.000000  0    2162349.837   1810807.680  -6291801.542
10 0 59306   8142.000000  0    1734875.616   1054325.654  -6589489.850
10 0 59306   8262.000000  0    1264018.805    287441.249  -6772214.293
10 0 59306   8382.000000  0     757885.340   -475870.433  -6836831.303
10 0 59306   8502.000000  0     225424.498  -1221854.160  -6782229.951
10 0 59306   8622.000000  0    -323725.570  -1937215.630  -6609347.385
10 0 59306   8742.000000  0    -879407.321  -2609351.790  -6321155.617
10 0 59306   8862.000000  0   -1431127.422  -3226569.947  -5922616.656
10 0 59306   8982.000000  0   -1968249.906  -3778289.499  -5420605.268
10 0 59306   9102.000000  0   -2480197.390  -4255225.013  -4823802.437
10 0 59306   9222.000000  0   -2956658.286  -4649548.451  -4142557.087
10 0 59306   9342.000000  0   -3387794.616  -4955024.774  -3388716.068
10 0 59306   9462.000000  0   -3764445.944  -5167118.688  -2575426.140
10 0 59306   9582.000000  0   -4078325.997  -5283070.073  -1716909.496
10 0 59306   9702.000000  0   -4322206.493  -5301935.225   -828215.782
10 0 59306   9822.000000  0   -4490083.007  -5224592.343     75044.911
10 0 59306   9942.000000  0   -4577318.289  -5053710.386    976982.622
10 0 59306  10062.000000  0   -4580759.295  -4793681.185   1861716.099
10 0 59306  10182.000000  0   -4498823.692  -4450515.621   2713661.997
10 0 59306  10302.000000  0   -4331554.316  -4031707.690   3517817.394
10 0 59306  10422.000000  0   -4080640.758  -3546070.236   4260030.435
10 0 59306  10542.000000  0   -3749406.634  -3003545.700   4927253.734
10 0 59306  10662.000000  0   -3342763.638  -2414997.435   5507773.272
10 0 59306  10782.000000  0   -2867135.135  -1791988.654   5991411.121
10 0 59306  10902.000000  0   -2330350.333  -1146552.427   6369700.484
10 0 59306  11022.000000  0   -1741510.676   -490955.683   6636029.486
10 0 59306  11142.000000  0   -1110830.418    162535.950   6785749.304
10 0 59306  11262.000000  0    -449458.327    801885.897   6816248.726
10 0 59306  11382.000000  0     230719.030   1415507.487   6726997.352
10 0 59306  11502.000000  0     917290.433   1992473.725   6519554.536
10 0 59306  11622.000000  0    1597545.980   2522711.908   6197543.129
10 0 59306  11742.000000  0    2258711.305   2997179.502   5766590.118
10 0 59306  11862.000000  0    2888187.711   3408020.780   5234235.134
10 0 59306  11982.000000  0    3473795.168   3748701.152   4609804.562
10 0 59306  12102.000000  0    4004010.353   4014114.143   3904251.968
10 0 59306  12222.000000  0    4468197.372   4200662.620   3129972.704
10 0 59306  12342.000000  0    4856828.889   4306310.005   2300585.204
10 0 59306  12462.000000  0    5161684.855   4330598.724   1430689.367
10 0 59306  12582.000000  0    5376030.357   4274637.223    535604.801
10 0 59306  12702.000000  0    5494764.361   4141054.243   -368907.252
10 0 59306  12822.000000  0    5514535.063   3933921.714  -1266930.638
10 0 59306  12942.000000  0    5433820.560   3658648.485  -2142682.617
10 0 59306  13062.000000  0    5252972.201   3321847.336  -2980798.167
10 0 59306  13182.000000  0    4974220.463   2931180.204  -3766603.535
10 0 59306  13302.000000  0    4601644.053   2495185.851  -4486375.138
10 0 59306  13422.000000  0    4141101.699   2023091.982  -5127577.574
10 0 59306  13542.000000  0    3600130.946   1524618.935  -5679075.004
10 0 59306  13662.000000  0    2987816.657   1009779.982  -6131315.569
10 0 59306  13782.000000  0    2314631.501    488681.578  -6476486.229
10 0 59306  13902.000000  0    1592253.261    -28671.971  -6708635.503
10 0 59306  14022.000000  0     833363.263   -532566.359  -6823766.685
10 0 59306  14142.000000  0      51425.197  -1013755.878  -6819899.796
10 0 59306  14262.000000  0    -739548.793  -1463628.250  -6697100.070
10 0 59306  14382.000000  0   -1525242.571  -1874354.414  -6457477.668
10 0 59306  14502.000000  0   -2291289.571  -2239022.603  -6105155.709
10 0 59306  14622.000000  0   -3023529.752  -2551753.294  -5646206.245
10 0 59306  14742.000000  0   -3708267.762  -2807794.742  -5088557.174
10 0 59306  14862.000000  0   -4332530.477  -3003597.907  -4441867.265
10 0 59306  14982.000000  0   -4884316.236  -3136867.535  -3717369.100
10 0 59306  15102.000000  0   -5352831.696  -3206588.701  -2927683.200
10 0 59306  15222.000000  0   -5728711.512  -3213028.051  -2086604.173
10 0 59306  15342.000000  0   -6004214.292  -3157708.720  -1208861.770
10 0 59306  15462.000000  0   -6173390.149  -3043359.445   -309861.590
10 0 59306  15582.000000  0   -6232214.926  -2873838.189    594590.114
10 0 59306  15702.000000  0   -6178687.730  -2654032.482   1488572.028
10 0 59306  15822.000000  0   -6012886.723  -2389738.084   2356338.365
10 0 59306  15942.000000  0   -5736981.638  -2087518.978   3182604.593
10 0 59306  16062.000000  0   -5355206.217  -1754553.639   3952824.181
10 0 59306  16182.000000  0   -4873786.455  -1398469.783   4653451.025
10 0 59306  16302.000000  0   -4300829.959  -1027173.097   5272177.908
10 0 59306  16422.000000  0   -3646181.775   -648675.209   5798150.815
99
